[{"OBJECT_NAME":"ONEWEB-0238","OBJECT_ID":"2021-045T","EPOCH":"2026-03-14T22:14:26.230272","MEAN_MOTION":13.15547368,"ECCENTRICITY":0.00018732,"INCLINATION":87.8932,"RA_OF_ASC_NODE":277.9889,"ARG_OF_PERICENTER":78.4972,"MEAN_ANOMALY":281.6369,"EPHEMERIS_TYPE":0,"CLASSIFICATION_TYPE":"U","NORAD_CAT_ID":48784,"ELEMENT_SET_NO":999,"REV_AT_EPOCH":23198,"BSTAR":0.00031675366,"MEAN_MOTION_DOT":1.32e-6,"MEAN_MOTION_DDOT":0},{"OBJECT_NAME":"ONEWEB-0240","OBJECT_ID":"2021-045U","EPOCH":"2026-03-14T19:06:00.502560","MEAN_MOTION":13.15548697,"ECCENTRICITY":0.00019724,"INCLINATION":87.8955,"RA_OF_ASC_NODE":278.018,"ARG_OF_PERICENTER":93.0224,"MEAN_ANOMALY":267.1132,"EPHEMERIS_TYPE":0,"CLASSIFICATION_TYPE":"U","NORAD_CAT_ID":48785,"ELEMENT_SET_NO":999,"REV_AT_EPOCH":23199,"BSTAR":0.00016027279,"MEAN_MOTION_DOT":7.3e-7,"MEAN_MOTION_DDOT":0},{"OBJECT_NAME":"ONEWEB-0246","OBJECT_ID":"2021-045V","EPOCH":"2026-03-14T18:58:00.253344","MEAN_MOTION":13.15547489,"ECCENTRICITY":0.00016047,"INCLINATION":87.8945,"RA_OF_ASC_NODE":278.0281,"ARG_OF_PERICENTER":94.7553,"MEAN_ANOMALY":265.3761,"EPHEMERIS_TYPE":0,"CLASSIFICATION_TYPE":"U","NORAD_CAT_ID":48786,"ELEMENT_SET_NO":999,"REV_AT_EPOCH":23186,"BSTAR":0.00023866368,"MEAN_MOTION_DOT":1.03e-6,"MEAN_MOTION_DDOT":0},{"OBJECT_NAME":"ONEWEB-0210","OBJECT_ID":"2021-045W","EPOCH":"2026-03-14T20:11:00.867264","MEAN_MOTION":13.15548137,"ECCENTRICITY":0.00017875,"INCLINATION":87.8942,"RA_OF_ASC_NODE":278.0144,"ARG_OF_PERICENTER":121.7407,"MEAN_ANOMALY":238.3898,"EPHEMERIS_TYPE":0,"CLASSIFICATION_TYPE":"U","NORAD_CAT_ID":48787,"ELEMENT_SET_NO":999,"REV_AT_EPOCH":23191,"BSTAR":0.00024304108,"MEAN_MOTION_DOT":1.04e-6,"MEAN_MOTION_DDOT":0},{"OBJECT_NAME":"ONEWEB-0214","OBJECT_ID":"2021-045X","EPOCH":"2026-03-14T20:23:34.378080","MEAN_MOTION":13.15548332,"ECCENTRICITY":0.00014887,"INCLINATION":87.8943,"RA_OF_ASC_NODE":278.0088,"ARG_OF_PERICENTER":104.5786,"MEAN_ANOMALY":255.551,"EPHEMERIS_TYPE":0,"CLASSIFICATION_TYPE":"U","NORAD_CAT_ID":48788,"ELEMENT_SET_NO":999,"REV_AT_EPOCH":23188,"BSTAR":0.00052214736,"MEAN_MOTION_DOT":2.09e-6,"MEAN_MOTION_DDOT":0},{"OBJECT_NAME":"ONEWEB-0221","OBJECT_ID":"2021-045Y","EPOCH":"2026-03-14T22:23:21.456672","MEAN_MOTION":13.15548172,"ECCENTRICITY":0.00018488,"INCLINATION":87.8941,"RA_OF_ASC_NODE":278.0021,"ARG_OF_PERICENTER":95.2913,"MEAN_ANOMALY":264.8429,"EPHEMERIS_TYPE":0,"CLASSIFICATION_TYPE":"U","NORAD_CAT_ID":48789,"ELEMENT_SET_NO":999,"REV_AT_EPOCH":23198,"BSTAR":0.00030961406,"MEAN_MOTION_DOT":1.29e-6,"MEAN_MOTION_DDOT":0},{"OBJECT_NAME":"ONEWEB-0213","OBJECT_ID":"2021-045Z","EPOCH":"2026-03-14T22:07:22.655136","MEAN_MOTION":13.15548922,"ECCENTRICITY":0.00018104,"INCLINATION":87.8942,"RA_OF_ASC_NODE":278.0079,"ARG_OF_PERICENTER":101.1889,"MEAN_ANOMALY":258.9445,"EPHEMERIS_TYPE":0,"CLASSIFICATION_TYPE":"U","NORAD_CAT_ID":48790,"ELEMENT_SET_NO":999,"REV_AT_EPOCH":23204,"BSTAR":0.00030664472,"MEAN_MOTION_DOT":1.28e-6,"MEAN_MOTION_DDOT":0},{"OBJECT_NAME":"ONEWEB-0212","OBJECT_ID":"2021-045AA","EPOCH":"2026-03-14T14:16:12.455040","MEAN_MOTION":13.15547901,"ECCENTRICITY":0.00016647,"INCLINATION":87.8943,"RA_OF_ASC_NODE":278.0677,"ARG_OF_PERICENTER":88.7826,"MEAN_ANOMALY":271.3495,"EPHEMERIS_TYPE":0,"CLASSIFICATION_TYPE":"U","NORAD_CAT_ID":48791,"ELEMENT_SET_NO":999,"REV_AT_EPOCH":23199,"BSTAR":-0.00028969537,"MEAN_MOTION_DOT":-9.6e-7,"MEAN_MOTION_DDOT":0},{"OBJECT_NAME":"ONEWEB-0227","OBJECT_ID":"2021-045AB","EPOCH":"2026-03-14T19:43:38.354016","MEAN_MOTION":13.155475,"ECCENTRICITY":0.00017317,"INCLINATION":87.8941,"RA_OF_ASC_NODE":278.0248,"ARG_OF_PERICENTER":91.4414,"MEAN_ANOMALY":268.6915,"EPHEMERIS_TYPE":0,"CLASSIFICATION_TYPE":"U","NORAD_CAT_ID":48792,"ELEMENT_SET_NO":999,"REV_AT_EPOCH":23197,"BSTAR":-0.00047440954,"MEAN_MOTION_DOT":-1.66e-6,"MEAN_MOTION_DDOT":0},{"OBJECT_NAME":"ONEWEB-0226","OBJECT_ID":"2021-045AC","EPOCH":"2026-03-14T19:34:30.285120","MEAN_MOTION":13.15548268,"ECCENTRICITY":0.00016416,"INCLINATION":87.8932,"RA_OF_ASC_NODE":278.0348,"ARG_OF_PERICENTER":101.7973,"MEAN_ANOMALY":258.3341,"EPHEMERIS_TYPE":0,"CLASSIFICATION_TYPE":"U","NORAD_CAT_ID":48793,"ELEMENT_SET_NO":999,"REV_AT_EPOCH":23194,"BSTAR":-0.00025929178,"MEAN_MOTION_DOT":-8.5e-7,"MEAN_MOTION_DDOT":0},{"OBJECT_NAME":"ONEWEB-0224","OBJECT_ID":"2021-045AD","EPOCH":"2026-03-14T22:21:05.621184","MEAN_MOTION":13.15549577,"ECCENTRICITY":0.00025035,"INCLINATION":87.8933,"RA_OF_ASC_NODE":278.0478,"ARG_OF_PERICENTER":83.117,"MEAN_ANOMALY":277.0245,"EPHEMERIS_TYPE":0,"CLASSIFICATION_TYPE":"U","NORAD_CAT_ID":48794,"ELEMENT_SET_NO":999,"REV_AT_EPOCH":23188,"BSTAR":0.00039464645,"MEAN_MOTION_DOT":1.61e-6,"MEAN_MOTION_DDOT":0},{"OBJECT_NAME":"ONEWEB-0233","OBJECT_ID":"2021-045AE","EPOCH":"2026-03-14T22:27:43.225344","MEAN_MOTION":13.15548589,"ECCENTRICITY":0.00019305,"INCLINATION":87.893,"RA_OF_ASC_NODE":278.0557,"ARG_OF_PERICENTER":95.6348,"MEAN_ANOMALY":264.5002,"EPHEMERIS_TYPE":0,"CLASSIFICATION_TYPE":"U","NORAD_CAT_ID":48795,"ELEMENT_SET_NO":999,"REV_AT_EPOCH":23190,"BSTAR":0.00056311117,"MEAN_MOTION_DOT":2.25e-6,"MEAN_MOTION_DDOT":0},{"OBJECT_NAME":"ONEWEB-0190","OBJECT_ID":"2021-045AF","EPOCH":"2026-03-14T22:09:39.575808","MEAN_MOTION":13.15548817,"ECCENTRICITY":0.00021119,"INCLINATION":87.893,"RA_OF_ASC_NODE":278.0194,"ARG_OF_PERICENTER":108.9165,"MEAN_ANOMALY":251.2195,"EPHEMERIS_TYPE":0,"CLASSIFICATION_TYPE":"U","NORAD_CAT_ID":48796,"ELEMENT_SET_NO":999,"REV_AT_EPOCH":23197,"BSTAR":0.0001444669,"MEAN_MOTION_DOT":6.7e-7,"MEAN_MOTION_DDOT":0},{"OBJECT_NAME":"ONEWEB-0236","OBJECT_ID":"2021-045AG","EPOCH":"2026-03-14T20:45:14.380992","MEAN_MOTION":13.15549028,"ECCENTRICITY":0.00016498,"INCLINATION":87.893,"RA_OF_ASC_NODE":278.0424,"ARG_OF_PERICENTER":85.4706,"MEAN_ANOMALY":274.6613,"EPHEMERIS_TYPE":0,"CLASSIFICATION_TYPE":"U","NORAD_CAT_ID":48797,"ELEMENT_SET_NO":999,"REV_AT_EPOCH":23185,"BSTAR":0.00058852997,"MEAN_MOTION_DOT":2.34e-6,"MEAN_MOTION_DDOT":0},{"OBJECT_NAME":"ONEWEB-0248","OBJECT_ID":"2021-045AH","EPOCH":"2026-03-14T19:13:57.822816","MEAN_MOTION":13.15550651,"ECCENTRICITY":0.00021324,"INCLINATION":87.8942,"RA_OF_ASC_NODE":278.0289,"ARG_OF_PERICENTER":96.1773,"MEAN_ANOMALY":263.9601,"EPHEMERIS_TYPE":0,"CLASSIFICATION_TYPE":"U","NORAD_CAT_ID":48798,"ELEMENT_SET_NO":999,"REV_AT_EPOCH":23200,"BSTAR":6.0706307e-5,"MEAN_MOTION_DOT":3.6e-7,"MEAN_MOTION_DDOT":0},{"OBJECT_NAME":"ONEWEB-0225","OBJECT_ID":"2021-045AJ","EPOCH":"2026-03-14T19:45:54.785664","MEAN_MOTION":13.15548819,"ECCENTRICITY":0.00020486,"INCLINATION":87.8933,"RA_OF_ASC_NODE":278.0397,"ARG_OF_PERICENTER":105.6457,"MEAN_ANOMALY":254.4899,"EPHEMERIS_TYPE":0,"CLASSIFICATION_TYPE":"U","NORAD_CAT_ID":48799,"ELEMENT_SET_NO":999,"REV_AT_EPOCH":23201,"BSTAR":-0.00024562214,"MEAN_MOTION_DOT":-8.0e-7,"MEAN_MOTION_DDOT":0}]
