ONEWEB-0238             
1 48784U 21045T   26073.92669248  .00000132  00000+0  31675-3 0  9997
2 48784  87.8932 277.9889 0001873  78.4972 281.6369 13.15547368231987
ONEWEB-0240             
1 48785U 21045U   26073.79583915  .00000073  00000+0  16027-3 0  9997
2 48785  87.8955 278.0180 0001972  93.0224 267.1132 13.15548697231996
ONEWEB-0246             
1 48786U 21045V   26073.79028071  .00000103  00000+0  23866-3 0  9998
2 48786  87.8945 278.0281 0001604  94.7553 265.3761 13.15547489231865
ONEWEB-0210             
1 48787U 21045W   26073.84098226  .00000104  00000+0  24304-3 0  9993
2 48787  87.8942 278.0144 0001787 121.7407 238.3898 13.15548137231910
ONEWEB-0214             
1 48788U 21045X   26073.84970345  .00000209  00000+0  52215-3 0  9993
2 48788  87.8943 278.0088 0001488 104.5786 255.5510 13.15548332231881
ONEWEB-0221             
1 48789U 21045Y   26073.93288723  .00000129  00000+0  30961-3 0  9991
2 48789  87.8941 278.0021 0001848  95.2913 264.8429 13.15548172231980
ONEWEB-0213             
1 48790U 21045Z   26073.92178999  .00000128  00000+0  30664-3 0  9994
2 48790  87.8942 278.0079 0001810 101.1889 258.9445 13.15548922232047
ONEWEB-0212             
1 48791U 21045AA  26073.59458860 -.00000096  00000+0 -28970-3 0  9999
2 48791  87.8943 278.0677 0001664  88.7826 271.3495 13.15547901231994
ONEWEB-0227             
1 48792U 21045AB  26073.82197169 -.00000166  00000+0 -47441-3 0  9990
2 48792  87.8941 278.0248 0001731  91.4414 268.6915 13.15547500231975
ONEWEB-0226             
1 48793U 21045AC  26073.81562830 -.00000085  00000+0 -25929-3 0  9998
2 48793  87.8932 278.0348 0001641 101.7973 258.3341 13.15548268231940
ONEWEB-0224             
1 48794U 21045AD  26073.93131506  .00000161  00000+0  39465-3 0  9997
2 48794  87.8933 278.0478 0002503  83.1170 277.0245 13.15549577231884
ONEWEB-0233             
1 48795U 21045AE  26073.93591696  .00000225  00000+0  56311-3 0  9998
2 48795  87.8930 278.0557 0001930  95.6348 264.5002 13.15548589231905
ONEWEB-0190             
1 48796U 21045AF  26073.92337472  .00000067  00000+0  14447-3 0  9996
2 48796  87.8930 278.0194 0002111 108.9165 251.2195 13.15548817231977
ONEWEB-0236             
1 48797U 21045AG  26073.86474978  .00000234  00000+0  58853-3 0  9998
2 48797  87.8930 278.0424 0001649  85.4706 274.6613 13.15549028231855
ONEWEB-0248             
1 48798U 21045AH  26073.80136369  .00000036  00000+0  60706-4 0  9993
2 48798  87.8942 278.0289 0002132  96.1773 263.9601 13.15550651232009
ONEWEB-0225             
1 48799U 21045AJ  26073.82355076 -.00000080  00000+0 -24562-3 0  9994
2 48799  87.8933 278.0397 0002048 105.6457 254.4899 13.15548819232019
